{
    "links": {
        "self": "http://www.neowsapp.com/rest/v1/neo/3843062?api_key=iIulBulltgU6a56xZRHN4H3l9WmuAYTsLGpBGhQ2"
    },
    "id": "3843062",
    "neo_reference_id": "3843062",
    "name": "(2019 MQ2)",
    "designation": "2019 MQ2",
    "nasa_jpl_url": "http://ssd.jpl.nasa.gov/sbdb.cgi?sstr=3843062",
    "absolute_magnitude_h": 24.2,
    "estimated_diameter": {
        "kilometers": {
            "estimated_diameter_min": 0.0384197891,
            "estimated_diameter_max": 0.0859092601
        },
        "meters": {
            "estimated_diameter_min": 38.4197891064,
            "estimated_diameter_max": 85.9092601232
        },
        "miles": {
            "estimated_diameter_min": 0.0238729428,
            "estimated_diameter_max": 0.0533815229
        },
        "feet": {
            "estimated_diameter_min": 126.0491808919,
            "estimated_diameter_max": 281.8545369825
        }
    },
    "is_potentially_hazardous_asteroid": false,
    "close_approach_data": [
        {
            "close_approach_date": "1912-09-24",
            "close_approach_date_full": "1912-Sep-24 22:46",
            "epoch_date_close_approach": -1807233240000,
            "relative_velocity": {
                "kilometers_per_second": "32.4730414822",
                "kilometers_per_hour": "116902.9493360489",
                "miles_per_hour": "72638.9464916133"
            },
            "miss_distance": {
                "astronomical": "0.1906468239",
                "lunar": "74.1616144971",
                "kilometers": "28520358.777705093",
                "miles": "17721729.1769645634"
            },
            "orbiting_body": "Earth"
        },
        {
            "close_approach_date": "1947-07-17",
            "close_approach_date_full": "1947-Jul-17 14:56",
            "epoch_date_close_approach": -708771840000,
            "relative_velocity": {
                "kilometers_per_second": "40.3523014069",
                "kilometers_per_hour": "145268.2850650024",
                "miles_per_hour": "90264.0630171955"
            },
            "miss_distance": {
                "astronomical": "0.4331659915",
                "lunar": "168.5015706935",
                "kilometers": "64800709.684838105",
                "miles": "40265293.871671649"
            },
            "orbiting_body": "Earth"
        },
        {
            "close_approach_date": "2019-06-28",
            "close_approach_date_full": "2019-Jun-28 13:46",
            "epoch_date_close_approach": 1561729560000,
            "relative_velocity": {
                "kilometers_per_second": "26.6976436799",
                "kilometers_per_hour": "96111.5172477998",
                "miles_per_hour": "59719.9591476676"
            },
            "miss_distance": {
                "astronomical": "0.0106596219",
                "lunar": "4.1465929191",
                "kilometers": "1594656.731245353",
                "miles": "990873.7453697514"
            },
            "orbiting_body": "Earth"
        },
        {
            "close_approach_date": "2020-09-01",
            "close_approach_date_full": "2020-Sep-01 02:34",
            "epoch_date_close_approach": 1598927640000,
            "relative_velocity": {
                "kilometers_per_second": "24.6873250658",
                "kilometers_per_hour": "88874.3702369729",
                "miles_per_hour": "55223.0774397457"
            },
            "miss_distance": {
                "astronomical": "0.1424533766",
                "lunar": "55.4143634974",
                "kilometers": "21310721.713667842",
                "miles": "13241868.4392745396"
            },
            "orbiting_body": "Venus"
        }
    ],
    "orbital_data": {
        "orbit_id": "10",
        "orbit_determination_date": "2019-07-27 14:02:25",
        "first_observation_date": "2019-06-30",
        "last_observation_date": "2019-07-05",
        "data_arc_in_days": 5,
        "observations_used": 107,
        "orbit_uncertainty": "8",
        "minimum_orbit_intersection": ".0105602",
        "jupiter_tisserand_invariant": "4.787",
        "epoch_osculation": "2458666.5",
        "eccentricity": ".7906204939392072",
        "semi_major_axis": "1.242186435459742",
        "inclination": ".8572001042128147",
        "ascending_node_longitude": "140.6096784594243",
        "orbital_period": "505.6832873576708",
        "perihelion_distance": ".2600883822919777",
        "perihelion_argument": "2.501695250655324",
        "aphelion_distance": "2.224284488627507",
        "perihelion_time": "2458617.195602540574",
        "mean_anomaly": "35.10019715727533",
        "mean_motion": ".7119080440271132",
        "equinox": "J2000",
        "orbit_class": {
            "orbit_class_type": "APO",
            "orbit_class_description": "Near-Earth asteroid orbits which cross the Earth’s orbit similar to that of 1862 Apollo",
            "orbit_class_range": "a (semi-major axis) > 1.0 AU; q (perihelion) < 1.017 AU"
        }
    },
    "is_sentry_object": false
}